[{"OBJECT_NAME":"YUNHAI-1 04","OBJECT_ID":"2023-159A","EPOCH":"2026-03-09T23:32:58.106976","MEAN_MOTION":14.32660643,"ECCENTRICITY":0.00021766,"INCLINATION":98.5096,"RA_OF_ASC_NODE":96.5782,"ARG_OF_PERICENTER":112.1327,"MEAN_ANOMALY":248.0088,"EPHEMERIS_TYPE":0,"CLASSIFICATION_TYPE":"U","NORAD_CAT_ID":58073,"ELEMENT_SET_NO":999,"REV_AT_EPOCH":12559,"BSTAR":0.0001354342,"MEAN_MOTION_DOT":3.25e-6,"MEAN_MOTION_DDOT":0},{"OBJECT_NAME":"CZ-6A DEB","OBJECT_ID":"2024-140ACC","EPOCH":"2026-03-09T03:08:44.687328","MEAN_MOTION":14.29434506,"ECCENTRICITY":0.00855423,"INCLINATION":89.3886,"RA_OF_ASC_NODE":311.6835,"ARG_OF_PERICENTER":198.3187,"MEAN_ANOMALY":161.4923,"EPHEMERIS_TYPE":0,"CLASSIFICATION_TYPE":"U","NORAD_CAT_ID":61812,"ELEMENT_SET_NO":999,"REV_AT_EPOCH":7866,"BSTAR":0.0012479921,"MEAN_MOTION_DOT":3.324e-5,"MEAN_MOTION_DDOT":0}]
